{"type": "FeatureCollection", "features": [{"type": "Feature", "properties": {"norad_id": 25590, "name": "COSMOS 2361", "group": "musson", "lat": -76.76838961642605, "lon": -156.41147218281714, "alt_km": 977.6063986278996, "timestamp": "2025-12-02T08:59:32.983858+00:00", "meta": {"OBJECT_NAME": "COSMOS 2361", "OBJECT_ID": "1998-076A", "EPOCH": "2025-12-02T04:34:49.987776", "MEAN_MOTION": 13.73215716, "ECCENTRICITY": 0.0030184, "INCLINATION": 82.9342, "RA_OF_ASC_NODE": 351.8892, "ARG_OF_PERICENTER": 296.2219, "MEAN_ANOMALY": 134.4767, "EPHEMERIS_TYPE": 0, "CLASSIFICATION_TYPE": "U", "NORAD_CAT_ID": 25590, "ELEMENT_SET_NO": 999, "REV_AT_EPOCH": 34966, "BSTAR": 7.729e-05, "MEAN_MOTION_DOT": 8.7e-07, "MEAN_MOTION_DDOT": 0}, "tle": {"line1": "1 25590U 98076A   25336.19085634  .00000087  00000+0  77290-4 0  9999", "line2": "2 25590  82.9342 351.8892 0030184 296.2219 134.4767 13.73215716349660"}}, "geometry": {"type": "Point", "coordinates": [-156.41147218281714, -76.76838961642605]}}, {"type": "Feature", "properties": {"norad_id": 26818, "name": "COSMOS 2378", "group": "musson", "lat": -61.76764262613046, "lon": -5.956466657911961, "alt_km": 981.1787471513753, "timestamp": "2025-12-02T08:59:32.983879+00:00", "meta": {"OBJECT_NAME": "COSMOS 2378", "OBJECT_ID": "2001-023A", "EPOCH": "2025-12-01T20:09:43.040736", "MEAN_MOTION": 13.74140422, "ECCENTRICITY": 0.0031853, "INCLINATION": 82.9281, "RA_OF_ASC_NODE": 7.8072, "ARG_OF_PERICENTER": 236.0309, "MEAN_ANOMALY": 297.9488, "EPHEMERIS_TYPE": 0, "CLASSIFICATION_TYPE": "U", "NORAD_CAT_ID": 26818, "ELEMENT_SET_NO": 999, "REV_AT_EPOCH": 22773, "BSTAR": 5.0735e-05, "MEAN_MOTION_DOT": 6.3e-07, "MEAN_MOTION_DDOT": 0}, "tle": {"line1": "1 26818U 01023A   25335.84008149  .00000063  00000+0  50735-4 0  9995", "line2": "2 26818  82.9281   7.8072 0031853 236.0309 297.9488 13.74140422227730"}}, "geometry": {"type": "Point", "coordinates": [-5.956466657911961, -61.76764262613046]}}, {"type": "Feature", "properties": {"norad_id": 27436, "name": "COSMOS 2389", "group": "musson", "lat": 72.06027183334105, "lon": 112.18530637544744, "alt_km": 940.6687232848508, "timestamp": "2025-12-02T08:59:32.983892+00:00", "meta": {"OBJECT_NAME": "COSMOS 2389", "OBJECT_ID": "2002-026A", "EPOCH": "2025-12-02T01:50:16.893024", "MEAN_MOTION": 13.7515292, "ECCENTRICITY": 0.0047791, "INCLINATION": 82.9493, "RA_OF_ASC_NODE": 314.8795, "ARG_OF_PERICENTER": 89.6966, "MEAN_ANOMALY": 341.7031, "EPHEMERIS_TYPE": 0, "CLASSIFICATION_TYPE": "U", "NORAD_CAT_ID": 27436, "ELEMENT_SET_NO": 999, "REV_AT_EPOCH": 18002, "BSTAR": 6.4939e-05, "MEAN_MOTION_DOT": 7.8e-07, "MEAN_MOTION_DDOT": 0}, "tle": {"line1": "1 27436U 02026A   25336.07658441  .00000078  00000+0  64939-4 0  9995", "line2": "2 27436  82.9493 314.8795 0047791  89.6966 341.7031 13.75152920180023"}}, "geometry": {"type": "Point", "coordinates": [112.18530637544744, 72.06027183334105]}}, {"type": "Feature", "properties": {"norad_id": 27818, "name": "COSMOS 2398", "group": "musson", "lat": 17.421446768883236, "lon": 98.11061074944466, "alt_km": 969.5301585502511, "timestamp": "2025-12-02T08:59:32.983904+00:00", "meta": {"OBJECT_NAME": "COSMOS 2398", "OBJECT_ID": "2003-023A", "EPOCH": "2025-12-02T03:00:40.085280", "MEAN_MOTION": 13.72384089, "ECCENTRICITY": 0.0032168, "INCLINATION": 82.9473, "RA_OF_ASC_NODE": 280.5205, "ARG_OF_PERICENTER": 140.3156, "MEAN_ANOMALY": 231.2604, "EPHEMERIS_TYPE": 0, "CLASSIFICATION_TYPE": "U", "NORAD_CAT_ID": 27818, "ELEMENT_SET_NO": 999, "REV_AT_EPOCH": 12671, "BSTAR": 3.4725e-05, "MEAN_MOTION_DOT": 4.7e-07, "MEAN_MOTION_DDOT": 0}, "tle": {"line1": "1 27818U 03023A   25336.12546395  .00000047  00000+0  34725-4 0  9993", "line2": "2 27818  82.9473 280.5205 0032168 140.3156 231.2604 13.72384089126713"}}, "geometry": {"type": "Point", "coordinates": [98.11061074944466, 17.421446768883236]}}, {"type": "Feature", "properties": {"norad_id": 28380, "name": "COSMOS 2407", "group": "musson", "lat": -31.753126540265924, "lon": 44.95120206257372, "alt_km": 1001.7253871914199, "timestamp": "2025-12-02T08:59:32.983915+00:00", "meta": {"OBJECT_NAME": "COSMOS 2407", "OBJECT_ID": "2004-028A", "EPOCH": "2025-12-01T20:05:49.644960", "MEAN_MOTION": 13.7631169, "ECCENTRICITY": 0.0040558, "INCLINATION": 82.9615, "RA_OF_ASC_NODE": 220.9639, "ARG_OF_PERICENTER": 84.393, "MEAN_ANOMALY": 346.4605, "EPHEMERIS_TYPE": 0, "CLASSIFICATION_TYPE": "U", "NORAD_CAT_ID": 28380, "ELEMENT_SET_NO": 999, "REV_AT_EPOCH": 7273, "BSTAR": 6.6399e-05, "MEAN_MOTION_DOT": 8.1e-07, "MEAN_MOTION_DDOT": 0}, "tle": {"line1": "1 28380U 04028A   25335.83738015  .00000081  00000+0  66399-4 0  9993", "line2": "2 28380  82.9615 220.9639 0040558  84.3930 346.4605 13.76311690 72738"}}, "geometry": {"type": "Point", "coordinates": [44.95120206257372, -31.753126540265924]}}, {"type": "Feature", "properties": {"norad_id": 28521, "name": "COSMOS 2414", "group": "musson", "lat": 42.28197167336073, "lon": -161.04164393026315, "alt_km": 949.7688271843426, "timestamp": "2025-12-02T08:59:32.983925+00:00", "meta": {"OBJECT_NAME": "COSMOS 2414", "OBJECT_ID": "2005-002A", "EPOCH": "2025-12-01T20:40:28.562880", "MEAN_MOTION": 13.87900629, "ECCENTRICITY": 0.004022, "INCLINATION": 82.9499, "RA_OF_ASC_NODE": 192.8852, "ARG_OF_PERICENTER": 170.2964, "MEAN_ANOMALY": 189.8986, "EPHEMERIS_TYPE": 0, "CLASSIFICATION_TYPE": "U", "NORAD_CAT_ID": 28521, "ELEMENT_SET_NO": 999, "REV_AT_EPOCH": 5644, "BSTAR": 6.858e-05, "MEAN_MOTION_DOT": 9.8e-07, "MEAN_MOTION_DDOT": 0}, "tle": {"line1": "1 28521U 05002A   25335.86144170  .00000098  00000+0  68580-4 0  9991", "line2": "2 28521  82.9499 192.8852 0040220 170.2964 189.8986 13.87900629 56446"}}, "geometry": {"type": "Point", "coordinates": [-161.04164393026315, 42.28197167336073]}}, {"type": "Feature", "properties": {"norad_id": 32052, "name": "COSMOS 2429", "group": "musson", "lat": -66.92755175399655, "lon": -25.86159762374665, "alt_km": 1008.598321639076, "timestamp": "2025-12-02T08:59:32.983952+00:00", "meta": {"OBJECT_NAME": "COSMOS 2429", "OBJECT_ID": "2007-038A", "EPOCH": "2025-12-01T19:21:10.577952", "MEAN_MOTION": 13.75147728, "ECCENTRICITY": 0.0039673, "INCLINATION": 82.9805, "RA_OF_ASC_NODE": 351.3694, "ARG_OF_PERICENTER": 67.5791, "MEAN_ANOMALY": 292.956, "EPHEMERIS_TYPE": 0, "CLASSIFICATION_TYPE": "U", "NORAD_CAT_ID": 32052, "ELEMENT_SET_NO": 999, "REV_AT_EPOCH": 91452, "BSTAR": 6.1742e-05, "MEAN_MOTION_DOT": 7.5e-07, "MEAN_MOTION_DDOT": 0}, "tle": {"line1": "1 32052U 07038A   25335.80637243  .00000075  00000+0  61742-4 0  9996", "line2": "2 32052  82.9805 351.3694 0039673  67.5791 292.9560 13.75147728914529"}}, "geometry": {"type": "Point", "coordinates": [-25.86159762374665, -66.92755175399655]}}, {"type": "Feature", "properties": {"norad_id": 35635, "name": "COSMOS 2454", "group": "musson", "lat": 17.375152297287272, "lon": 178.71921872806135, "alt_km": 927.6524127386674, "timestamp": "2025-12-02T08:59:32.983965+00:00", "meta": {"OBJECT_NAME": "COSMOS 2454", "OBJECT_ID": "2009-039A", "EPOCH": "2025-12-02T02:33:26.529984", "MEAN_MOTION": 13.89926549, "ECCENTRICITY": 0.0020469, "INCLINATION": 82.9557, "RA_OF_ASC_NODE": 176.7052, "ARG_OF_PERICENTER": 102.1545, "MEAN_ANOMALY": 14.8125, "EPHEMERIS_TYPE": 0, "CLASSIFICATION_TYPE": "U", "NORAD_CAT_ID": 35635, "ELEMENT_SET_NO": 999, "REV_AT_EPOCH": 83002, "BSTAR": 7.2654e-05, "MEAN_MOTION_DOT": 1.06e-06, "MEAN_MOTION_DDOT": 0}, "tle": {"line1": "1 35635U 09039A   25336.10655706  .00000106  00000+0  72654-4 0  9996", "line2": "2 35635  82.9557 176.7052 0020469 102.1545  14.8125 13.89926549830027"}}, "geometry": {"type": "Point", "coordinates": [178.71921872806135, 17.375152297287272]}}, {"type": "Feature", "properties": {"norad_id": 36519, "name": "COSMOS 2463", "group": "musson", "lat": 19.36091254006539, "lon": 36.81668199859102, "alt_km": 981.4464798815015, "timestamp": "2025-12-02T08:59:32.983976+00:00", "meta": {"OBJECT_NAME": "COSMOS 2463", "OBJECT_ID": "2010-017A", "EPOCH": "2025-12-02T03:55:34.634784", "MEAN_MOTION": 13.71647684, "ECCENTRICITY": 0.0035137, "INCLINATION": 82.9622, "RA_OF_ASC_NODE": 34.4839, "ARG_OF_PERICENTER": 318.378, "MEAN_ANOMALY": 99.1147, "EPHEMERIS_TYPE": 0, "CLASSIFICATION_TYPE": "U", "NORAD_CAT_ID": 36519, "ELEMENT_SET_NO": 999, "REV_AT_EPOCH": 78092, "BSTAR": 6.5307e-05, "MEAN_MOTION_DOT": 7.4e-07, "MEAN_MOTION_DDOT": 0}, "tle": {"line1": "1 36519U 10017A   25336.16359531  .00000074  00000+0  65307-4 0  9990", "line2": "2 36519  82.9622  34.4839 0035137 318.3780  99.1147 13.71647684780929"}}, "geometry": {"type": "Point", "coordinates": [36.81668199859102, 19.36091254006539]}}]}